GLOBALSTAR M001         
1 25162U 98008A   24125.35029193 -.00000059  00000+0  29049-3 0  9998
2 25162  52.0027  83.1463 0001685  97.4922  68.2601 12.38183472193175
GLOBALSTAR M002         
1 25164U 98008C   24126.16587235 -.00000038  00000+0  74973-3 0  9999
2 25164  51.9989 183.2434 0001496 128.8567 231.2387 11.61502605136725
GLOBALSTAR M003         
1 25165U 98008D   24125.68115580  .00000036  00000+0  13336-2 0  9998
2 25165  51.9844 219.9344 0008295 188.2244 321.1522 12.11999331183778
GLOBALSTAR M014         
1 25306U 98023A   24126.21663972 -.00000052  00000+0  47374-3 0  9994
2 25306  51.9806 114.9134 0001027 332.4093  40.1529 11.65467546143592
GLOBALSTAR M006         
1 25307U 98023B   24125.98978866 -.00000019  00000+0  11658-2 0  9997
2 25307  51.9902 152.7072 0003470  94.7174 328.4254 11.58163205169641
GLOBALSTAR M008         
1 25309U 98023D   24125.77782858 -.00000059  00000+0  29087-3 0  9990
2 25309  51.9969 302.1097 0002950  50.6783 322.4407 12.36042782187651
